IRIDIUM 38              
1 25043U 97069E   25064.56027381  .00000652  00000+0  20955-3 0  9990
2 25043  86.3903 276.7756 0003978  83.5489 276.6162 14.37948765431067
IRIDIUM 42              
1 25077U 97077A   25064.64861974  .00000599  00000+0  19891-3 0  9996
2 25077  86.3914 282.7863 0002792  90.1232 270.0285 14.36198707426335
IRIDIUM 45              
1 25104U 97082A   25064.56992225  .00021979  00000+0  89219-3 0  9994
2 25104  86.3558  98.0445 0127152   0.2141 359.9130 15.17238021436558
IRIDIUM 24              
1 25105U 97082B   25064.71020646  .00000696  00000+0  20633-3 0  9999
2 25105  86.3907 124.2047 0013329  65.8531 294.4062 14.41925667428303
IRIDIUM 51              
1 25262U 98018A   25064.54622590  .00033642  00000+0  95899-3 0  9993
2 25262  86.3837 106.8262 0099480 286.2406  72.7916 15.31015202431120
IRIDIUM 57              
1 25273U 98019B   25064.82250951  .00000740  00000+0  24929-3 0  9994
2 25273  86.4029 188.5233 0002130  93.8395 266.3046 14.35767421409957
